CCSDS_OMM_VERS = 2.0
CREATION_DATE  = 
ORIGINATOR     = 

OBJECT_NAME    = ATLAS CENTAUR R/B
OBJECT_ID      = 1972-065B
CENTER_NAME    = EARTH
REF_FRAME      = TEME
TIME_SYSTEM    = UTC
MEAN_ELEMENT_THEORY = SGP/SGP4

EPOCH          = 2025-11-21T02:25:56.633088
MEAN_MOTION    = 14.77329300
ECCENTRICITY   = .003382
INCLINATION    = 35.0009
RA_OF_ASC_NODE = 221.9452
ARG_OF_PERICENTER = 178.3064
MEAN_ANOMALY   = 181.7755

EPHEMERIS_TYPE = 0
CLASSIFICATION_TYPE = U
NORAD_CAT_ID   = 6155
ELEMENT_SET_NO = 999
REV_AT_EPOCH   = 82519
BSTAR          = .16373E-3
MEAN_MOTION_DOT = .117E-4
MEAN_MOTION_DDOT = 0

CCSDS_OMM_VERS = 2.0
CREATION_DATE  = 
ORIGINATOR     = 

OBJECT_NAME    = SL-8 R/B
OBJECT_ID      = 1975-112B
CENTER_NAME    = EARTH
REF_FRAME      = TEME
TIME_SYSTEM    = UTC
MEAN_ELEMENT_THEORY = SGP/SGP4

EPOCH          = 2025-11-21T03:02:58.003008
MEAN_MOTION    = 14.38125729
ECCENTRICITY   = .0016068
INCLINATION    = 74.0606
RA_OF_ASC_NODE = 218.6093
ARG_OF_PERICENTER = 332.7775
MEAN_ANOMALY   = 27.2535

EPHEMERIS_TYPE = 0
CLASSIFICATION_TYPE = U
NORAD_CAT_ID   = 8459
ELEMENT_SET_NO = 999
REV_AT_EPOCH   = 61626
BSTAR          = .10487E-3
MEAN_MOTION_DOT = .292E-5
MEAN_MOTION_DDOT = 0

CCSDS_OMM_VERS = 2.0
CREATION_DATE  = 
ORIGINATOR     = 

OBJECT_NAME    = SL-3 R/B
OBJECT_ID      = 1977-057B
CENTER_NAME    = EARTH
REF_FRAME      = TEME
TIME_SYSTEM    = UTC
MEAN_ELEMENT_THEORY = SGP/SGP4

EPOCH          = 2025-11-21T13:03:28.562112
MEAN_MOTION    = 15.42263244
ECCENTRICITY   = .0006935
INCLINATION    = 97.5680
RA_OF_ASC_NODE = 128.0591
ARG_OF_PERICENTER = 321.7022
MEAN_ANOMALY   = 38.3731

EPHEMERIS_TYPE = 0
CLASSIFICATION_TYPE = U
NORAD_CAT_ID   = 10114
ELEMENT_SET_NO = 999
REV_AT_EPOCH   = 65164
BSTAR          = .31627E-3
MEAN_MOTION_DOT = .13527E-3
MEAN_MOTION_DDOT = 0

CCSDS_OMM_VERS = 2.0
CREATION_DATE  = 
ORIGINATOR     = 

OBJECT_NAME    = SEASAT 1
OBJECT_ID      = 1978-064A
CENTER_NAME    = EARTH
REF_FRAME      = TEME
TIME_SYSTEM    = UTC
MEAN_ELEMENT_THEORY = SGP/SGP4

EPOCH          = 2025-11-21T13:59:35.897568
MEAN_MOTION    = 14.46026805
ECCENTRICITY   = .0002159
INCLINATION    = 108.0081
RA_OF_ASC_NODE = 258.6530
ARG_OF_PERICENTER = 252.4311
MEAN_ANOMALY   = 107.6599

EPHEMERIS_TYPE = 0
CLASSIFICATION_TYPE = U
NORAD_CAT_ID   = 10967
ELEMENT_SET_NO = 999
REV_AT_EPOCH   = 49088
BSTAR          = .16473E-3
MEAN_MOTION_DOT = .451E-5
MEAN_MOTION_DDOT = 0

CCSDS_OMM_VERS = 2.0
CREATION_DATE  = 
ORIGINATOR     = 

OBJECT_NAME    = SL-14 R/B
OBJECT_ID      = 1979-011B
CENTER_NAME    = EARTH
REF_FRAME      = TEME
TIME_SYSTEM    = UTC
MEAN_ELEMENT_THEORY = SGP/SGP4

EPOCH          = 2025-11-21T02:55:56.865216
MEAN_MOTION    = 14.91733043
ECCENTRICITY   = .0017543
INCLINATION    = 82.5253
RA_OF_ASC_NODE = 199.5438
ARG_OF_PERICENTER = 62.5623
MEAN_ANOMALY   = 297.7378

EPHEMERIS_TYPE = 0
CLASSIFICATION_TYPE = U
NORAD_CAT_ID   = 11267
ELEMENT_SET_NO = 999
REV_AT_EPOCH   = 51259
BSTAR          = .60408E-4
MEAN_MOTION_DOT = .635E-5
MEAN_MOTION_DDOT = 0

CCSDS_OMM_VERS = 2.0
CREATION_DATE  = 
ORIGINATOR     = 

OBJECT_NAME    = SL-8 R/B
OBJECT_ID      = 1979-089B
CENTER_NAME    = EARTH
REF_FRAME      = TEME
TIME_SYSTEM    = UTC
MEAN_ELEMENT_THEORY = SGP/SGP4

EPOCH          = 2025-11-21T08:00:31.704192
MEAN_MOTION    = 14.42262415
ECCENTRICITY   = .0014736
INCLINATION    = 74.0681
RA_OF_ASC_NODE = 291.5972
ARG_OF_PERICENTER = 134.9482
MEAN_ANOMALY   = 225.2872

EPHEMERIS_TYPE = 0
CLASSIFICATION_TYPE = U
NORAD_CAT_ID   = 11574
ELEMENT_SET_NO = 999
REV_AT_EPOCH   = 42048
BSTAR          = .10855E-3
MEAN_MOTION_DOT = .332E-5
MEAN_MOTION_DDOT = 0

CCSDS_OMM_VERS = 2.0
CREATION_DATE  = 
ORIGINATOR     = 

OBJECT_NAME    = SL-14 R/B
OBJECT_ID      = 1980-005B
CENTER_NAME    = EARTH
REF_FRAME      = TEME
TIME_SYSTEM    = UTC
MEAN_ELEMENT_THEORY = SGP/SGP4

EPOCH          = 2025-11-20T15:52:07.327488
MEAN_MOTION    = 14.90751808
ECCENTRICITY   = .00162248
INCLINATION    = 82.5164
RA_OF_ASC_NODE = 50.6346
ARG_OF_PERICENTER = 162.1607
MEAN_ANOMALY   = 198.0185

EPHEMERIS_TYPE = 0
CLASSIFICATION_TYPE = U
NORAD_CAT_ID   = 11672
ELEMENT_SET_NO = 999
REV_AT_EPOCH   = 46024
BSTAR          = .76207309E-4
MEAN_MOTION_DOT = .775E-5
MEAN_MOTION_DDOT = 0

CCSDS_OMM_VERS = 2.0
CREATION_DATE  = 
ORIGINATOR     = 

OBJECT_NAME    = SL-8 R/B
OBJECT_ID      = 1981-003B
CENTER_NAME    = EARTH
REF_FRAME      = TEME
TIME_SYSTEM    = UTC
MEAN_ELEMENT_THEORY = SGP/SGP4

EPOCH          = 2025-11-20T11:39:52.136640
MEAN_MOTION    = 15.05964700
ECCENTRICITY   = .02819915
INCLINATION    = 82.9335
RA_OF_ASC_NODE = 30.6699
ARG_OF_PERICENTER = 197.2554
MEAN_ANOMALY   = 161.8945

EPHEMERIS_TYPE = 0
CLASSIFICATION_TYPE = U
NORAD_CAT_ID   = 12139
ELEMENT_SET_NO = 999
REV_AT_EPOCH   = 29821
BSTAR          = .61362518E-3
MEAN_MOTION_DOT = .22574E-3
MEAN_MOTION_DDOT = 0

CCSDS_OMM_VERS = 2.0
CREATION_DATE  = 
ORIGINATOR     = 

OBJECT_NAME    = SL-3 R/B
OBJECT_ID      = 1981-046B
CENTER_NAME    = EARTH
REF_FRAME      = TEME
TIME_SYSTEM    = UTC
MEAN_ELEMENT_THEORY = SGP/SGP4

EPOCH          = 2025-11-21T12:03:38.668032
MEAN_MOTION    = 15.38994319
ECCENTRICITY   = .0020322
INCLINATION    = 81.2344
RA_OF_ASC_NODE = 59.3278
ARG_OF_PERICENTER = 37.7839
MEAN_ANOMALY   = 322.4824

EPHEMERIS_TYPE = 0
CLASSIFICATION_TYPE = U
NORAD_CAT_ID   = 12465
ELEMENT_SET_NO = 999
REV_AT_EPOCH   = 42177
BSTAR          = .32021E-3
MEAN_MOTION_DOT = .12483E-3
MEAN_MOTION_DDOT = 0

CCSDS_OMM_VERS = 2.0
CREATION_DATE  = 
ORIGINATOR     = 

OBJECT_NAME    = SL-3 R/B
OBJECT_ID      = 1981-103B
CENTER_NAME    = EARTH
REF_FRAME      = TEME
TIME_SYSTEM    = UTC
MEAN_ELEMENT_THEORY = SGP/SGP4

EPOCH          = 2025-11-21T12:42:00.393408
MEAN_MOTION    = 15.19864106
ECCENTRICITY   = .0011542
INCLINATION    = 81.1585
RA_OF_ASC_NODE = 340.1903
ARG_OF_PERICENTER = 296.5471
MEAN_ANOMALY   = 63.4575

EPHEMERIS_TYPE = 0
CLASSIFICATION_TYPE = U
NORAD_CAT_ID   = 12904
ELEMENT_SET_NO = 999
REV_AT_EPOCH   = 95679
BSTAR          = .37205E-3
MEAN_MOTION_DOT = .8019E-4
MEAN_MOTION_DDOT = 0

CCSDS_OMM_VERS = 2.0
CREATION_DATE  = 
ORIGINATOR     = 

OBJECT_NAME    = SL-3 R/B
OBJECT_ID      = 1982-013B
CENTER_NAME    = EARTH
REF_FRAME      = TEME
TIME_SYSTEM    = UTC
MEAN_ELEMENT_THEORY = SGP/SGP4

EPOCH          = 2025-11-21T14:10:44.965344
MEAN_MOTION    = 15.20812966
ECCENTRICITY   = .0022715
INCLINATION    = 81.1737
RA_OF_ASC_NODE = 287.3596
ARG_OF_PERICENTER = 179.6358
MEAN_ANOMALY   = 180.4894

EPHEMERIS_TYPE = 0
CLASSIFICATION_TYPE = U
NORAD_CAT_ID   = 13068
ELEMENT_SET_NO = 999
REV_AT_EPOCH   = 38791
BSTAR          = .23157E-3
MEAN_MOTION_DOT = .5166E-4
MEAN_MOTION_DDOT = 0

CCSDS_OMM_VERS = 2.0
CREATION_DATE  = 
ORIGINATOR     = 

OBJECT_NAME    = SL-3 R/B
OBJECT_ID      = 1982-039B
CENTER_NAME    = EARTH
REF_FRAME      = TEME
TIME_SYSTEM    = UTC
MEAN_ELEMENT_THEORY = SGP/SGP4

EPOCH          = 2025-11-21T03:52:04.276704
MEAN_MOTION    = 15.09347146
ECCENTRICITY   = .0031486
INCLINATION    = 81.1760
RA_OF_ASC_NODE = 340.9142
ARG_OF_PERICENTER = 324.0330
MEAN_ANOMALY   = 35.8775

EPHEMERIS_TYPE = 0
CLASSIFICATION_TYPE = U
NORAD_CAT_ID   = 13154
ELEMENT_SET_NO = 999
REV_AT_EPOCH   = 36526
BSTAR          = .14847E-3
MEAN_MOTION_DOT = .2419E-4
MEAN_MOTION_DDOT = 0

