ATLAS CENTAUR R/B       
1 06155U 72065B   25325.10134992  .00001170  00000+0  16373-3 0  9994
2 06155  35.0009 221.9452 0033820 178.3064 181.7755 14.77329300825191
SL-8 R/B                
1 08459U 75112B   25325.12706022  .00000292  00000+0  10487-3 0  9994
2 08459  74.0606 218.6093 0016068 332.7775  27.2535 14.38125729616262
SL-3 R/B                
1 10114U 77057B   25325.54408058  .00013527  00000+0  31627-3 0  9993
2 10114  97.5680 128.0591 0006935 321.7022  38.3731 15.42263244651640
SEASAT 1                
1 10967U 78064A   25325.58305437  .00000451  00000+0  16473-3 0  9993
2 10967 108.0081 258.6530 0002159 252.4311 107.6599 14.46026805490889
SL-14 R/B               
1 11267U 79011B   25325.12218594  .00000635  00000+0  60408-4 0  9999
2 11267  82.5253 199.5438 0017543  62.5623 297.7378 14.91733043512597
SL-8 R/B                
1 11574U 79089B   25325.33370028  .00000332  00000+0  10855-3 0  9993
2 11574  74.0681 291.5972 0014736 134.9482 225.2872 14.42262415420480
SL-14 R/B               
1 11672U 80005B   25324.66119592  .00000775  00000+0  76207-4 0  9999
2 11672  82.5164  50.6346 0016224 162.1607 198.0185 14.90751808460248
SL-8 R/B                
1 12139U 81003B   25324.48602010  .00022574  00000+0  61363-3 0  9996
2 12139  82.9335  30.6699 0281991 197.2554 161.8945 15.05964700298217
SL-3 R/B                
1 12465U 81046B   25325.50253088  .00012483  00000+0  32021-3 0  9993
2 12465  81.2344  59.3278 0020322  37.7839 322.4824 15.38994319421770
SL-3 R/B                
1 12904U 81103B   25325.52917122  .00008019  00000+0  37205-3 0  9992
2 12904  81.1585 340.1903 0011542 296.5471  63.4575 15.19864106956790
SL-3 R/B                
1 13068U 82013B   25325.59079821  .00005166  00000+0  23157-3 0  9998
2 13068  81.1737 287.3596 0022715 179.6358 180.4894 15.20812966387915
SL-3 R/B                
1 13154U 82039B   25325.16116061  .00002419  00000+0  14847-3 0  9997
2 13154  81.1760 340.9142 0031486 324.0330  35.8775 15.09347146365266
